{
"type": "FeatureCollection",
"name": "may-11-georef",
"crs": { "type": "name", "properties": { "name": "urn:ogc:def:crs:OGC:1.3:CRS84" } },
"features": [
{ "type": "Feature", "properties": { "fid": 1 }, "geometry": { "type": "Polygon", "coordinates": [ [ [ 49.8907208591936, 29.025780134260707 ], [ 49.91853385642343, 28.971223870463735 ], [ 49.936719277689086, 28.943410873233905 ], [ 49.949021180309977, 28.930574105281675 ], [ 49.955439564286088, 28.918272202660788 ], [ 49.972555254889059, 28.895807858744387 ], [ 49.97202038955772, 28.88885460943693 ], [ 49.960788217599514, 28.884575686786185 ], [ 49.952765237629372, 28.884040821454843 ], [ 49.94634685365326, 28.882436225460815 ], [ 49.943672526996544, 28.880831629466787 ], [ 49.945277122990575, 28.884040821454843 ], [ 49.953300102960718, 28.887250013442902 ], [ 49.957579025611459, 28.890459205430957 ], [ 49.961323082930861, 28.891528936093643 ], [ 49.961323082930861, 28.891528936093643 ], [ 49.960253352268175, 28.897947320069758 ], [ 49.954369833623403, 28.905970300039904 ], [ 49.941862515907061, 28.922214955498774 ], [ 49.931596493078942, 28.935175809319276 ], [ 49.925180228811371, 28.944800205720636 ], [ 49.928260035659804, 28.94518518157669 ], [ 49.923640325387154, 28.950831494132157 ], [ 49.921202144965477, 28.958017710111839 ], [ 49.90224712020926, 28.999947690647979 ], [ 49.893900078497509, 29.005103216411118 ], [ 49.893409076043874, 29.009276737266998 ], [ 49.895864088312038, 29.009276737266998 ], [ 49.889972058868445, 29.019096786339649 ], [ 49.88899005396118, 29.024988815783239 ], [ 49.890708562548895, 29.025725319463689 ], [ 49.8907208591936, 29.025780134260707 ] ] ] } },
{ "type": "Feature", "properties": { "fid": 2 }, "geometry": { "type": "Polygon", "coordinates": [ [ [ 49.989520520982744, 28.869929506027976 ], [ 49.999450562222869, 28.8959958642833 ], [ 50.010621858618002, 28.910890926143484 ], [ 50.021793155013142, 28.92330347769364 ], [ 50.032343823830772, 28.927647870736195 ], [ 50.028620058365725, 28.941922305018871 ], [ 50.033585078985787, 28.953093601414011 ], [ 50.024896292900678, 28.958679249611578 ], [ 50.027999430788221, 28.96922991842921 ], [ 50.040411982338377, 28.973574311471765 ], [ 50.044756375380928, 28.983504352711886 ], [ 50.070202106058744, 28.979159959669335 ], [ 50.072684616368775, 28.967988663274195 ], [ 50.072684616368775, 28.949369835948964 ], [ 50.077649636988838, 28.9363366568213 ], [ 50.081373402453885, 28.935095401666285 ], [ 50.086959050651451, 28.930751008623734 ], [ 50.07144336121376, 28.925785988003671 ], [ 50.063375202706162, 28.925165360426163 ], [ 50.068340223326224, 28.908408415833456 ], [ 50.06958147848124, 28.894133981550777 ], [ 50.06958147848124, 28.889168960930714 ], [ 50.075787754256311, 28.88296268515564 ], [ 50.080752774876373, 28.877997664535577 ], [ 50.086959050651451, 28.864964485407913 ], [ 50.089441560961482, 28.8556550717453 ], [ 50.086338423073947, 28.849448795970222 ], [ 50.088200305806467, 28.845104402927667 ], [ 50.109301643441732, 28.842621892617636 ], [ 50.121714194991881, 28.838277499575085 ], [ 50.127299843189455, 28.83393310653253 ], [ 50.13722988442958, 28.826485575602437 ], [ 50.139712394739604, 28.824003065292406 ], [ 50.141574277472131, 28.818417417094835 ], [ 50.142194905049635, 28.809108003432222 ], [ 50.136609256852068, 28.806625493122191 ], [ 50.128541098344471, 28.801660472502128 ], [ 50.11736980194933, 28.806625493122191 ], [ 50.096889091891576, 28.816555534362315 ], [ 50.081994030031389, 28.8153142792073 ], [ 50.063995830283666, 28.8153142792073 ], [ 50.052824533888526, 28.819658672249851 ], [ 50.034826334140803, 28.818417417094835 ], [ 50.018690017125607, 28.825864948024929 ], [ 50.01682813439308, 28.833312478955023 ], [ 50.008759975885482, 28.847586913237699 ], [ 50.008759975885482, 28.864964485407913 ], [ 49.996968051912837, 28.859999464787855 ], [ 49.989520520982744, 28.866826368140437 ], [ 49.989520520982744, 28.869929506027976 ] ] ] } },
{ "type": "Feature", "properties": { "fid": 3 }, "geometry": { "type": "Polygon", "coordinates": [ [ [ 50.211548785448649, 28.828079299104115 ], [ 50.224687522123482, 28.832595739836087 ], [ 50.240289771924836, 28.827668713583027 ], [ 50.249733238909876, 28.829311055667382 ], [ 50.25096499547314, 28.831363983272823 ], [ 50.255481436205109, 28.835469838483707 ], [ 50.257944949331645, 28.835469838483707 ], [ 50.257944949331645, 28.836701595046971 ], [ 50.257944949331645, 28.836701595046971 ], [ 50.259997876937085, 28.846555647553096 ], [ 50.24726972578334, 28.85066150276398 ], [ 50.253428508599669, 28.851893259327245 ], [ 50.260408462458173, 28.854767357974865 ], [ 50.267388416316678, 28.853125015890509 ], [ 50.27683188330171, 28.866263752565338 ], [ 50.283811837160215, 28.874886048508195 ], [ 50.30064584352484, 28.874886048508195 ], [ 50.301467014567017, 28.867084923607518 ], [ 50.306394040820074, 28.876117805071463 ], [ 50.321175119579259, 28.875707219550375 ], [ 50.333903270732996, 28.872422535381666 ], [ 50.347042007407829, 28.862568482875542 ], [ 50.36059132960375, 28.855999114538129 ], [ 50.368392454504431, 28.848608575158536 ], [ 50.371677138673135, 28.841628621300035 ], [ 50.37496182284184, 28.832595739836087 ], [ 50.36264425720919, 28.839165108173503 ], [ 50.355664303350686, 28.84491330546874 ], [ 50.358948987519391, 28.830132226709559 ], [ 50.353611375745245, 28.832185154314999 ], [ 50.35689605991395, 28.825615785977586 ], [ 50.344578494281301, 28.829311055667382 ], [ 50.324870389269051, 28.835059252962619 ], [ 50.310089310509873, 28.837933351610239 ], [ 50.305983455298986, 28.83998627921568 ], [ 50.313784580199666, 28.834648667441531 ], [ 50.321996290621435, 28.829311055667382 ], [ 50.334313856254091, 28.822741687329966 ], [ 50.334313856254091, 28.822741687329966 ], [ 50.343346737718036, 28.817814661076905 ], [ 50.361412500645926, 28.808371194091873 ], [ 50.370034796588783, 28.80590768096534 ], [ 50.373730066278576, 28.8038547533599 ], [ 50.379888849094904, 28.799338312627928 ], [ 50.38645821743232, 28.796464213980308 ], [ 50.396312269938441, 28.795232457417043 ], [ 50.395491098896265, 28.799338312627928 ], [ 50.388921730558849, 28.8038547533599 ], [ 50.383584118784697, 28.807960608570784 ], [ 50.379478263573816, 28.810013536176225 ], [ 50.387279388474496, 28.808781779612961 ], [ 50.392206414727553, 28.808781779612961 ], [ 50.402881638275858, 28.800159483670104 ], [ 50.415199203908507, 28.799338312627928 ], [ 50.425053256414628, 28.79810655606466 ], [ 50.432443795794221, 28.794000700853775 ], [ 50.440244920694902, 28.793590115332687 ], [ 50.445171946947966, 28.787841918037451 ], [ 50.451330729764287, 28.777577280010238 ], [ 50.454615413932999, 28.771829082715001 ], [ 50.470628249255448, 28.764027957814321 ], [ 50.483766985930274, 28.7541739053082 ], [ 50.503064505421428, 28.740624583112282 ], [ 50.515382071054084, 28.731181116127249 ], [ 50.52852080772891, 28.722558820184393 ], [ 50.546997156177895, 28.707777741425208 ], [ 50.561778234937073, 28.69710251787691 ], [ 50.566294675669049, 28.683142610159901 ], [ 50.566294675669049, 28.67328855765378 ], [ 50.525236123560205, 28.702029544129971 ], [ 50.502243334379251, 28.718042379452417 ], [ 50.482124643845921, 28.735286971338134 ], [ 50.463237709875855, 28.749657464576227 ], [ 50.445993117990142, 28.757869174997996 ], [ 50.436960236526197, 28.768133813025205 ], [ 50.431212039230957, 28.769776155109561 ], [ 50.420536815682659, 28.774292595841533 ], [ 50.412325105260891, 28.778809036573506 ], [ 50.40452398036021, 28.777577280010238 ], [ 50.403702809318034, 28.782504306263302 ], [ 50.399596954107146, 28.776345523446974 ], [ 50.391795829206465, 28.784557233868743 ], [ 50.379888849094904, 28.784557233868743 ], [ 50.375782993884016, 28.788663089079627 ], [ 50.371677138673135, 28.792358358769423 ], [ 50.359359573040479, 28.794000700853775 ], [ 50.354432546787422, 28.800159483670104 ], [ 50.33883029698606, 28.805497095444252 ], [ 50.327333902395587, 28.810013536176225 ], [ 50.31501633676293, 28.815761733471462 ], [ 50.299824672482657, 28.81904641764017 ], [ 50.288738863413272, 28.820688759724526 ], [ 50.279295396428239, 28.813298220344933 ], [ 50.282580080596944, 28.808371194091873 ], [ 50.286275350286743, 28.804675924402076 ], [ 50.288328277892184, 28.800570069191192 ], [ 50.281758909554767, 28.80303358231772 ], [ 50.275600126738446, 28.807960608570784 ], [ 50.264514317669054, 28.806728852007517 ], [ 50.257944949331645, 28.807550023049696 ], [ 50.257944949331645, 28.807550023049696 ], [ 50.255892021726197, 28.812066463781669 ], [ 50.256713192768373, 28.814940562429285 ], [ 50.259176705894909, 28.818225246597994 ], [ 50.246448554741164, 28.817814661076905 ], [ 50.232078061503074, 28.820278174203438 ], [ 50.219760495870418, 28.822331101808878 ], [ 50.211548785448649, 28.828079299104115 ] ] ] } }
]
}
