{"type": "FeatureCollection", "features": [{"type": "Feature", "geometry": {"type": "Polygon", "coordinates": [[[50.28249071079426, 29.26358266520113], [50.281502569327124, 29.25771056803955], [50.284614973812964, 29.25411692447693], [50.28523614762494, 29.238776298116413], [50.28834159313948, 29.23608509926575], [50.29193335269227, 29.237458043930573], [50.29087335257537, 29.24196536118684], [50.29288158728617, 29.249196684443262], [50.2897540329181, 29.25504690950233], [50.285104398006254, 29.25772987830351], [50.286114687969445, 29.260443028185442], [50.2835324472218, 29.261783087392477], [50.28403443974748, 29.263590943006278], [50.28249071079426, 29.26358266520113]]]}, "properties": {"date": "2026-05-06", "sensing_time": "2026-05-06T14:42:29.538209Z", "sensor": "Sentinel-1", "platform": "S1A", "kind": "core", "source": "S1 VV threshold (~4.4 dB below scene background)"}}, {"type": "Feature", "geometry": {"type": "Polygon", "coordinates": [[[50.422223644752236, 29.1225507052942], [50.42069210081452, 29.12073886721957], [50.422246344632576, 29.118489036257788], [50.42122871671435, 29.116679417167266], [50.41710004757632, 29.119820684297995], [50.415558429423854, 29.11981397332321], [50.420216184782845, 29.113967196747403], [50.42433698777905, 29.112179718352415], [50.423813094192624, 29.11398270033857], [50.4248357626762, 29.114889706569492], [50.42741250534117, 29.113546810033682], [50.42894904883784, 29.11445597849362], [50.4330895164232, 29.109057845507493], [50.43720254007115, 29.108623860225137], [50.44030254913018, 29.105477670057958], [50.44544300752754, 29.10504771379705], [50.444921940556604, 29.106399486368883], [50.441320406645076, 29.107287150465503], [50.43976185735232, 29.11043981153306], [50.433571203971944, 29.1149268909446], [50.429971767682446, 29.115362946177132], [50.42738751355506, 29.118059782906585], [50.42481818933652, 29.118048785839974], [50.42378542960851, 29.118946966868645], [50.42428421945932, 29.121656954667408], [50.422223644752236, 29.1225507052942]]]}, "properties": {"date": "2026-05-06", "sensing_time": "2026-05-06T14:42:29.538209Z", "sensor": "Sentinel-1", "platform": "S1A", "kind": "core", "source": "S1 VV threshold (~4.4 dB below scene background)"}}, {"type": "Feature", "geometry": {"type": "Polygon", "coordinates": [[[50.45312856887321, 29.109141057644994], [50.45262191114944, 29.107785062208396], [50.46137794330475, 29.103758723598588], [50.468605874408354, 29.097017895112206], [50.4742595749112, 29.096588861080892], [50.47219762013752, 29.097934697103085], [50.47218841182725, 29.099739904427874], [50.470647078508094, 29.099733830641235], [50.46445138016602, 29.10557627150543], [50.45929916656249, 29.108263458607613], [50.45312856887321, 29.109141057644994]]]}, "properties": {"date": "2026-05-06", "sensing_time": "2026-05-06T14:42:29.538209Z", "sensor": "Sentinel-1", "platform": "S1A", "kind": "core", "source": "S1 VV threshold (~4.4 dB below scene background)"}}, {"type": "Feature", "geometry": {"type": "Polygon", "coordinates": [[[50.28797076777617, 29.215323595436935], [50.28749077719335, 29.210356795705813], [50.290676073229825, 29.195932253337816], [50.28965381639335, 29.19502423994216], [50.28810487911591, 29.195918603643268], [50.28860977222124, 29.197275176165583], [50.28601665811699, 29.20042044018104], [50.28036294460852, 29.19993886606147], [50.27777584036391, 29.202181407414297], [50.275226718267675, 29.199008561607588], [50.277845417121114, 29.192253281871107], [50.27684230684153, 29.18863749963293], [50.27321108300925, 29.193130792696692], [50.26546558224263, 29.197601465982775], [50.26544628078887, 29.200309128430376], [50.262325192741415, 29.205256200550902], [50.25508935033637, 29.21018035037913], [50.25354643252694, 29.210171752564158], [50.25253747010174, 29.20745836028157], [50.24328353854712, 29.20695506023099], [50.240177835593904, 29.20964521937241], [50.23194228920312, 29.210500788395038], [50.23143808654613, 29.209144017008363], [50.232991062300904, 29.207799050234733], [50.238147331912295, 29.206023333394896], [50.2355893107284, 29.2042035758844], [50.22991543558266, 29.206427510065303], [50.228853082405294, 29.210934313534445], [50.21755206716254, 29.20906354478765], [50.216550933787794, 29.205447355449664], [50.21449382326903, 29.20543529708296], [50.21242291336141, 29.20722829113342], [50.20830862654944, 29.207204014544573], [50.202627036698445, 29.210329316157484], [50.199541235562975, 29.21031089293637], [50.19032641657504, 29.204839974568362], [50.18313735850091, 29.203442418299797], [50.18263383551896, 29.202085474631296], [50.18571581081562, 29.202555551236145], [50.1908903033908, 29.198525319702313], [50.192943729719374, 29.198989007568244], [50.19449704063125, 29.197644492140604], [50.195028901806396, 29.195391237005385], [50.19146119121349, 29.191308115853655], [50.19150012453309, 29.186344147163584], [50.19306738630921, 29.183194561135313], [50.19669114430831, 29.1800573072908], [50.19775454598306, 29.17555075918205], [50.20295857581181, 29.16745855883811], [50.20502535398407, 29.166116961474724], [50.208161778533146, 29.15936613095073], [50.21690058863447, 29.159417500778517], [50.23080346302609, 29.156338982974773], [50.2498883767118, 29.147421260634943], [50.25971894394165, 29.13844996901948], [50.26231447017034, 29.134853890950474], [50.26233380200984, 29.132146203935463], [50.26750817394915, 29.127210286549765], [50.271099068537126, 29.128132459098744], [50.27419197243674, 29.126795341136212], [50.276755121000036, 29.127711794254378], [50.280885144540896, 29.12502621081247], [50.290128882520904, 29.125978078106684], [50.29373536917634, 29.124643223497777], [50.29680639474653, 29.126464571982744], [50.30040976162051, 29.12558082213816], [50.308701418339446, 29.115243885460497], [50.319554413369715, 29.10582202774606], [50.32112244895106, 29.101768238863674], [50.326823876294355, 29.094124796977795], [50.326844423323, 29.09096576552376], [50.33100085580594, 29.083765668494124], [50.33358090208008, 29.081973283622638], [50.33768454402752, 29.082896213339566], [50.34283854962051, 29.0802137152579], [50.34282995715391, 29.081567592640887], [50.338694612172844, 29.085609031503076], [50.33971336766139, 29.08696796665235], [50.339179498993126, 29.090124478942826], [50.336076930080935, 29.093268299454234], [50.336042184411944, 29.09868378939059], [50.33448348838563, 29.101383893969267], [50.334959546184244, 29.10725321435481], [50.33288687283677, 29.10995074537782], [50.33286940578108, 29.112658482400438], [50.33488408185297, 29.118986743159144], [50.33946269101993, 29.126230234517003], [50.33944826915379, 29.12848667964278], [50.34353086850673, 29.133019766840402], [50.34351653146946, 29.135276211527934], [50.34607767539258, 29.136642640321043], [50.34708275609473, 29.14025796322753], [50.35373610377213, 29.144803241232964], [50.35832276498064, 29.151143521325675], [50.36241822905314, 29.153870888172353], [50.363971461257975, 29.152073059926114], [50.36399925947489, 29.147560162858976], [50.359404003841675, 29.142573940287242], [50.358412483278826, 29.136702253850977], [50.35586523766938, 29.133079608009513], [50.35125684516191, 29.13034956177432], [50.35333511244423, 29.126749173234053], [50.35591305583737, 29.125407671588402], [50.3558933682548, 29.12856670530518], [50.360490635694234, 29.133101755866885], [50.36200735557199, 29.137170717727564], [50.36197390672194, 29.142586200140197], [50.36708606076954, 29.147123475149474], [50.36650560168632, 29.157952000313728], [50.368545267332145, 29.160669444636373], [50.3685231763515, 29.164279758647414], [50.366978140037325, 29.164723768063116], [50.36649452225953, 29.159757157585105], [50.3639380950074, 29.15748853235951], [50.362904413980594, 29.15838622525968], [50.363893592431914, 29.1647091554019], [50.361309171247136, 29.166953365896294], [50.361300790523956, 29.16830723070674], [50.36386298746773, 29.169673329189326], [50.36282081960209, 29.171924882483346], [50.35298730879847, 29.182257650422272], [50.350407893428354, 29.183599061684223], [50.34784839177527, 29.181781419865626], [50.344740402963744, 29.185376644445952], [50.34268363490069, 29.18536656270677], [50.34372063632654, 29.18401775088221], [50.343226572105515, 29.180856230016268], [50.344257780805194, 29.180409984087497], [50.343243816124655, 29.17814851489072], [50.33912767877416, 29.178579563955743], [50.33705944461031, 29.180374539327115], [50.33910454171803, 29.1821898473175], [50.33549949720807, 29.183074603684325], [50.332940277076794, 29.181256681115965], [50.3344944380214, 29.179459216659794], [50.334511910298744, 29.17675150574951], [50.332467001347894, 29.174936129170582], [50.33091873041394, 29.17583100194071], [50.32986991898458, 29.178984853799104], [50.32781622600289, 29.178523261192918], [50.32885334882339, 29.177174565161508], [50.327839754696754, 29.174912984160258], [50.32525725567066, 29.176705194555684], [50.32217237563711, 29.1766896153832], [50.319063661275436, 29.18028423470186], [50.31592478648496, 29.18839160518301], [50.31025948662391, 29.189716430849476], [50.30922199397406, 29.19106497425456], [50.31229826316916, 29.192434705311896], [50.31694422432207, 29.18975070435248], [50.3179666747968, 29.19065851317398], [50.31435515942213, 29.192445256119942], [50.312791424405326, 29.195596320346212], [50.31074653821953, 29.193780617227628], [50.30868658991208, 29.194221292197795], [50.30766418803106, 29.193313413742263], [50.30662966067641, 29.19421065370814], [50.31122759208045, 29.19874736324882], [50.30812085014692, 29.20189041827432], [50.30913728732925, 29.20370085573086], [50.307570182316866, 29.20730312892108], [50.30395790301236, 29.20908957422179], [50.30341307525065, 29.213599698048743], [50.301352699839434, 29.21404025169285], [50.29776777350628, 29.21176500809811], [50.29676994775722, 29.207246811291128], [50.29832205839763, 29.205901070571233], [50.2993874648799, 29.200491097784326], [50.29682539116283, 29.19912377311391], [50.29473130145551, 29.204528308226244], [50.29574135560082, 29.207241402256056], [50.2941799141072, 29.209940949566228], [50.291611472165954, 29.209476082300363], [50.29057664233428, 29.210373190917498], [50.28951688820291, 29.21488051928338], [50.28797076777617, 29.215323595436935]], [[50.30552516196419, 29.20548734684778], [50.30810569711716, 29.204146823271003], [50.30708623896098, 29.202787659259876], [50.30450572539799, 29.204128163795822], [50.30552516196419, 29.20548734684778]], [[50.23874497172804, 29.194744404697197], [50.24029430623224, 29.19385061937638], [50.23927585316419, 29.192490954432593], [50.23772653082856, 29.19338472835752], [50.23874497172804, 29.194744404697197]], [[50.243432641009335, 29.1866476876613], [50.24498181278632, 29.18575384405618], [50.24396337451373, 29.18439421347491], [50.24241421489488, 29.185288045686285], [50.243432641009335, 29.1866476876613]], [[50.31236448787884, 29.18250649141745], [50.313916019251245, 29.181160555341968], [50.31341687431207, 29.178901504571666], [50.311880427127605, 29.177991020921503], [50.31031986403977, 29.180690782677686], [50.31236448787884, 29.18250649141745]], [[50.317521169410846, 29.18027638178705], [50.319069620876036, 29.17938166749995], [50.31805025428321, 29.17802258364599], [50.31650181488419, 29.17891728651512], [50.317521169410846, 29.18027638178705]], [[50.34376084363407, 29.177699749561935], [50.347371344080706, 29.175912193090262], [50.34533767743684, 29.17229186345828], [50.34276704337255, 29.172279272945506], [50.34121601758356, 29.173625553297054], [50.34376084363407, 29.177699749561935]], [[50.25176770322214, 29.171801784357815], [50.25486868752371, 29.169562593205885], [50.253850272029005, 29.168203035095154], [50.250752585177224, 29.169990925947122], [50.25176770322214, 29.171801784357815]], [[50.25231779354272, 29.16684060067977], [50.25438393548495, 29.165498229457533], [50.25337209557743, 29.163236111242842], [50.250274551836576, 29.1650239948897], [50.25231779354272, 29.16684060067977]], [[50.25900420498029, 29.166426462201876], [50.261070253904144, 29.16508398604496], [50.26005179843388, 29.163724473518975], [50.257985764255, 29.165066934485296], [50.25900420498029, 29.166426462201876]], [[50.270346075155835, 29.16197575493895], [50.28067776016925, 29.154810861905396], [50.28171524601206, 29.153462532535478], [50.280696626228504, 29.152103171881343], [50.27708901207485, 29.15343765065723], [50.275010724820994, 29.156585507789945], [50.270365217794016, 29.159268074010726], [50.2693275255979, 29.160616310699968], [50.270346075155835, 29.16197575493895]], [[50.32690569404731, 29.160466694379355], [50.331024075531595, 29.159584722949592], [50.33206388170966, 29.157784708259996], [50.33104162462407, 29.156877005917018], [50.327440344975535, 29.15731027580739], [50.32588640457364, 29.15910766771811], [50.32690569404731, 29.160466694379355]], [[50.26779815045687, 29.158802770206222], [50.273992164593786, 29.155226097789274], [50.272469144416455, 29.152510047298925], [50.26834099108002, 29.15474405697437], [50.26677966526289, 29.157443307098408], [50.26779815045687, 29.158802770206222]], [[50.268998778743686, 29.13443921409672], [50.27106405170237, 29.13309656384721], [50.27004576871388, 29.131737124097903], [50.26798051046023, 29.1330797591727], [50.268998778743686, 29.13443921409672]]]}, "properties": {"date": "2026-05-06", "sensing_time": "2026-05-06T14:42:29.538209Z", "sensor": "Sentinel-1", "platform": "S1A", "kind": "core", "source": "S1 VV threshold (~4.4 dB below scene background)"}}, {"type": "Feature", "geometry": {"type": "Polygon", "coordinates": [[[50.343697058390234, 29.10684495245298], [50.34320045016358, 29.104134692108236], [50.35044165118155, 29.09649776237953], [50.355118837046646, 29.087945508762544], [50.35666276758034, 29.08750161403715], [50.355107590807584, 29.08975068087759], [50.35612379654033, 29.091560787541873], [50.35508228300673, 29.0938123163448], [50.356104142701255, 29.094719837343874], [50.3597059243189, 29.09383446410666], [50.366420439978974, 29.08799935352545], [50.36850005653174, 29.08394739161779], [50.371065765958086, 29.084410749725183], [50.37209862518562, 29.083512971696475], [50.37159589308904, 29.081705387347366], [50.37366152970268, 29.079909813106845], [50.37416156217441, 29.082168685776686], [50.37261504808316, 29.083064079553658], [50.37358780516589, 29.09209477390214], [50.36997520650572, 29.0947856988312], [50.36995597290891, 29.09794475563764], [50.36788990699724, 29.099740261552977], [50.36482114991263, 29.097469233284844], [50.358644884357034, 29.099245070065205], [50.35709517722624, 29.10059156912706], [50.357594937805764, 29.102850492586548], [50.356042353000475, 29.10464826980781], [50.3524401636705, 29.105533536884312], [50.34936306849564, 29.10461603417946], [50.34575226365022, 29.10685499404657], [50.343697058390234, 29.10684495245298]]]}, "properties": {"date": "2026-05-06", "sensing_time": "2026-05-06T14:42:29.538209Z", "sensor": "Sentinel-1", "platform": "S1A", "kind": "core", "source": "S1 VV threshold (~4.4 dB below scene background)"}}, {"type": "Feature", "geometry": {"type": "Polygon", "coordinates": [[[50.37181207066814, 29.046052990194518], [50.37337166773887, 29.0429011042442], [50.379547016331266, 29.040673221631426], [50.383157457609926, 29.037981985352545], [50.38671968381772, 29.043414032028956], [50.39031412169469, 29.04343039800738], [50.38876300807094, 29.04522859156041], [50.37593638820973, 29.043364356949805], [50.37181207066814, 29.046052990194518]]]}, "properties": {"date": "2026-05-06", "sensing_time": "2026-05-06T14:42:29.538209Z", "sensor": "Sentinel-1", "platform": "S1A", "kind": "core", "source": "S1 VV threshold (~4.4 dB below scene background)"}}, {"type": "Feature", "geometry": {"type": "Polygon", "coordinates": [[[50.3934029897659, 29.042090451122714], [50.39341618680984, 29.039833953334895], [50.396510159395156, 29.037591332200474], [50.39651803578807, 29.036237431933582], [50.394988194907945, 29.034425302168895], [50.39293440655659, 29.03441603605447], [50.393461045463724, 29.03216185514097], [50.39192867266584, 29.030800991268457], [50.39501977257141, 29.029009698420065], [50.40066218753118, 29.029937614592683], [50.402194664226336, 29.031298380497237], [50.4006361178328, 29.034450622088144], [50.40319816559326, 29.03536465420209], [50.40421211146232, 29.037625716630714], [50.39958571418376, 29.038507739498748], [50.39494344503472, 29.042097399946613], [50.3934029897659, 29.042090451122714]]]}, "properties": {"date": "2026-05-06", "sensing_time": "2026-05-06T14:42:29.538209Z", "sensor": "Sentinel-1", "platform": "S1A", "kind": "core", "source": "S1 VV threshold (~4.4 dB below scene background)"}}, {"type": "Feature", "geometry": {"type": "Polygon", "coordinates": [[[50.095787479888905, 28.900062276691127], [50.09222965235482, 28.896427916035346], [50.089713243067685, 28.890995285884372], [50.08410519118195, 28.88734684831341], [50.08515429344514, 28.88464614830136], [50.09134957032183, 28.879723708224134], [50.0913652796179, 28.877918592805564], [50.09290319918026, 28.877928952250258], [50.09537645977092, 28.88832559770941], [50.097916513815, 28.891050456736806], [50.09992451684241, 28.896028239774992], [50.099905050435616, 28.898284633246274], [50.09783847708105, 28.90007602768962], [50.095787479888905, 28.900062276691127]]]}, "properties": {"date": "2026-05-06", "sensing_time": "2026-05-06T14:42:29.538209Z", "sensor": "Sentinel-1", "platform": "S1A", "kind": "core", "source": "S1 VV threshold (~4.4 dB below scene background)"}}, {"type": "Feature", "geometry": {"type": "Polygon", "coordinates": [[[50.10109768017046, 28.878886466514036], [50.09755206417786, 28.873898406936174], [50.09757156186211, 28.871642006758993], [50.09451155439942, 28.869816261778176], [50.09453502622379, 28.867108582109054], [50.092500359987916, 28.865289675773536], [50.09406939967756, 28.861689776401683], [50.091009742253576, 28.859863957102448], [50.09112355136555, 28.846776821848753], [50.09426492950334, 28.839125720937336], [50.0963186291842, 28.838688186555913], [50.097343525406146, 28.83869504863404], [50.097312362528314, 28.842305305970356], [50.095188296882114, 28.8508659204509], [50.096710220696615, 28.852681352830842], [50.09615867764172, 28.85719072941869], [50.09768460436566, 28.858554870591355], [50.09663220312142, 28.86170697218238], [50.09918722720716, 28.86262668115749], [50.09760665206204, 28.867580484505226], [50.101668561406655, 28.87212067931606], [50.104231626113766, 28.87213773626487], [50.103156016861654, 28.877997566865933], [50.10109768017046, 28.878886466514036]]]}, "properties": {"date": "2026-05-06", "sensing_time": "2026-05-06T14:42:29.538209Z", "sensor": "Sentinel-1", "platform": "S1A", "kind": "core", "source": "S1 VV threshold (~4.4 dB below scene background)"}}, {"type": "Feature", "geometry": {"type": "Polygon", "coordinates": [[[50.046955382691124, 28.856851937378103], [50.04543428125772, 28.855035962983848], [50.04236329349861, 28.854562884924007], [50.04187146010621, 28.852302873299152], [50.03932966471136, 28.85002827214492], [50.03677134780598, 28.8495587202294], [50.03834203557007, 28.845959500053148], [50.03732955069389, 28.844598365690967], [50.03322146143382, 28.84547158867061], [50.03276743070783, 28.839150082298307], [50.03583375715586, 28.840074642520626], [50.03737940327981, 28.83918307344815], [50.03839598815263, 28.840092932693356], [50.03994989892669, 28.838298783935134], [50.03997475262763, 28.835591133751393], [50.04509900356659, 28.835627502997465], [50.04768167564417, 28.833389233598382], [50.04973133635371, 28.833403686554785], [50.052838517470455, 28.829815090981846], [50.05746230203862, 28.828493552905275], [50.05953215411973, 28.8262514638883], [50.06312286948948, 28.825825136673853], [50.06208192876833, 28.82762313196238], [50.05951187264293, 28.828507855069162], [50.060008047508, 28.830316538403547], [50.057938122373855, 28.83255863176317], [50.06048802649836, 28.833930331769217], [50.05791373672887, 28.83526629731306], [50.057893412794606, 28.8375226844262], [50.05582329605451, 28.839764738617138], [50.05834896112777, 28.84384414302594], [50.056791203258314, 28.846089784404178], [50.05780395979305, 28.847450778596173], [50.05725077695538, 28.851959961842837], [50.05418390093498, 28.85103587762202], [50.050551293925245, 28.85597469740027], [50.046955382691124, 28.856851937378103]], [[50.044442246339806, 28.851418506556634], [50.0459879927054, 28.850526842515613], [50.044987731867046, 28.847811938326046], [50.043442018165855, 28.848703591996887], [50.044442246339806, 28.851418506556634]], [[50.05162957848399, 28.850115329793567], [50.05369182493912, 28.84877590237191], [50.052679110546734, 28.84741487850602], [50.05216662613685, 28.84741127778949], [50.05216253469348, 28.847862553711092], [50.05165004816598, 28.84785895098093], [50.05164595441734, 28.848310226804937], [50.05113346577225, 28.84830662206107], [50.05112936971824, 28.848757897787486], [50.05061687895556, 28.848754291029845], [50.05162957848399, 28.850115329793567]], [[50.05165414182076, 28.84740767512616], [50.05319976881037, 28.846515925073245], [50.05219117282695, 28.844703621614325], [50.05064556484069, 28.84559536076753], [50.05165414182076, 28.84740767512616]], [[50.04248729871048, 28.841024646012116], [50.04403702992539, 28.83968172443654], [50.041999651209565, 28.838313356605823], [50.04096236000777, 28.83965989924507], [50.04248729871048, 28.841024646012116]]]}, "properties": {"date": "2026-05-06", "sensing_time": "2026-05-06T14:42:29.538209Z", "sensor": "Sentinel-1", "platform": "S1A", "kind": "core", "source": "S1 VV threshold (~4.4 dB below scene background)"}}, {"type": "Feature", "geometry": {"type": "Polygon", "coordinates": [[[50.06450261890171, 28.8434356586489], [50.0619605281277, 28.8411614746887], [50.06148047234843, 28.837547688446794], [50.06149666979725, 28.83574257696225], [50.064607562343916, 28.831702425296157], [50.06463177117599, 28.82899475311153], [50.06669745783494, 28.82720383014312], [50.06925939652161, 28.827221526920162], [50.07078453748118, 28.828585960607878], [50.07286210905884, 28.82544110061276], [50.07491162888976, 28.82545516750931], [50.07540008303226, 28.828166361287], [50.073854913647374, 28.829058378695635], [50.07332253007213, 28.831311259617497], [50.07432338773291, 28.834025973501383], [50.070712379961606, 28.83670898858867], [50.07069634091158, 28.838514104566226], [50.068638529934326, 28.839402525101896], [50.06655651503643, 28.84299858248185], [50.06450261890171, 28.8434356586489]], [[50.068678715050396, 28.834889737473382], [50.070736435778024, 28.834001313700806], [50.06972764623935, 28.832189133849436], [50.067665931355336, 28.833528821981623], [50.068678715050396, 28.834889737473382]]]}, "properties": {"date": "2026-05-06", "sensing_time": "2026-05-06T14:42:29.538209Z", "sensor": "Sentinel-1", "platform": "S1A", "kind": "core", "source": "S1 VV threshold (~4.4 dB below scene background)"}}, {"type": "Feature", "geometry": {"type": "Polygon", "coordinates": [[[50.424987967644284, 29.271943691223857], [50.42139316564757, 29.270574283934703], [50.418835354872165, 29.267855401624722], [50.41471332336756, 29.26874000891165], [50.40907331716952, 29.26510481454197], [50.40807271444376, 29.260136116346754], [50.4049957332643, 29.258317266140526], [50.40347299559665, 29.254700099495405], [50.3998817238573, 29.252878836860962], [50.400921311134354, 29.25107830818234], [50.39990279412529, 29.24926854935779], [50.40763095019644, 29.247497817980626], [50.410185375444634, 29.25066819846639], [50.41326479941393, 29.252035642404802], [50.41580412357449, 29.25791363834634], [50.41836671776105, 29.259730004470512], [50.41886087594207, 29.26334253660645], [50.42295985173499, 29.26651937935002], [50.426559571354446, 29.266986169675757], [50.42963469485195, 29.26925581713139], [50.42911004539625, 29.271058768003936], [50.424987967644284, 29.271943691223857]]]}, "properties": {"date": "2026-05-08", "sensing_time": "2026-05-08T02:37:59.840074Z", "sensor": "Sentinel-1", "platform": "S1C", "kind": "core", "source": "S1 VV threshold (~4.4 dB below scene background)"}}, {"type": "Feature", "geometry": {"type": "Polygon", "coordinates": [[[50.16532493586698, 29.116684526978283], [50.161779348611276, 29.110344286249287], [50.16287633777401, 29.101776533563736], [50.16139359543551, 29.094546544081034], [50.15832596552194, 29.09272214976371], [50.1563373374729, 29.084586334731647], [50.157896696454976, 29.0823396496131], [50.15689142869251, 29.079625559195428], [50.15845803246076, 29.076476316907666], [50.15797375517785, 29.072862905006076], [50.16004649569289, 29.07061940787535], [50.15905226599652, 29.066551506902282], [50.16060031725986, 29.065658601664282], [50.161132160675834, 29.063405438285557], [50.164209907446484, 29.06387593425076], [50.16575787523707, 29.06298296746204], [50.16625328217089, 29.065242535207904], [50.16880667173821, 29.067063562680566], [50.166726930652175, 29.07020975176136], [50.16979405702725, 29.072033949577484], [50.17498045862728, 29.065747756694176], [50.17702760066765, 29.066662920422505], [50.172358492858834, 29.072501085942303], [50.172861292433176, 29.073858078974048], [50.17028236008529, 29.075196052392904], [50.167229645551316, 29.071566764642064], [50.16568155979063, 29.072459744938527], [50.16514248784279, 29.075615473502452], [50.16309163408063, 29.07515140256796], [50.161539805948856, 29.07649560690735], [50.16046864497091, 29.081904469671734], [50.158920346054956, 29.082797366283735], [50.159412022381915, 29.085508224770347], [50.161452095696404, 29.08732617512366], [50.164534194482, 29.08734540288236], [50.16451598261635, 29.0896017708022], [50.16861104254021, 29.091432395723174], [50.16756185594095, 29.094133666607497], [50.17114342237467, 29.095961028711553], [50.174757507173055, 29.093726828839483], [50.17477909694366, 29.091019181866972], [50.1763273886564, 29.0901261030359], [50.175321563773224, 29.087412142598712], [50.17686979620526, 29.086519055862226], [50.17794732321554, 29.080207498329653], [50.181068479437336, 29.07526230488037], [50.19086968425047, 29.06990616911897], [50.191400896590615, 29.067652874567763], [50.192934633364274, 29.068564703975877], [50.19501355457769, 29.065418091650294], [50.19146780386326, 29.05907858637003], [50.19202708344701, 29.053215052892174], [50.19049357866872, 29.052303215659204], [50.192093899288636, 29.04464074491833], [50.19519226361024, 29.042402843750907], [50.198273052528506, 29.042421270605267], [50.2019020360818, 29.037929868861884], [50.20809781145458, 29.033453518746864], [50.21121951347911, 29.028056252130057], [50.216377327150944, 29.024927313280273], [50.224699284500204, 29.01053385190421], [50.22778586103088, 29.009649012479873], [50.226745806677286, 29.011448252695242], [50.22776236914084, 29.012808013048414], [50.2313556264662, 29.012828613469225], [50.23030221787397, 29.01643302413688], [50.236432435025726, 29.02052974393923], [50.24262899444844, 29.01560045525159], [50.24625512118532, 29.011107783985008], [50.24627149853212, 29.00885134485273], [50.25089775563575, 29.00797459717196], [50.254019699058375, 29.002124971311826], [50.25659575106973, 29.00078532108792], [50.259723581082426, 28.99403296645199], [50.26282218949569, 28.9913421432757], [50.26283499315242, 28.989536979902056], [50.26079819564064, 28.987269255314146], [50.25872608572399, 28.989965697589714], [50.25565327276438, 28.98904610508155], [50.25462038381552, 28.989942999037343], [50.25511742407176, 28.992202293276225], [50.252041331426355, 28.991733907636448], [50.24739619937862, 28.995318444303457], [50.244843127894136, 28.99349889886283], [50.23969763574416, 28.99527512574841], [50.239707541413395, 28.993921261225683], [50.243833088776334, 28.991236685580972], [50.24384950532947, 28.98898024103646], [50.24745828881356, 28.98674394911797], [50.24644498318755, 28.984933042931768], [50.24748769017099, 28.982682342273915], [50.251105927075386, 28.979092074125003], [50.253161802894944, 28.978652198213858], [50.253122901770794, 28.98406768374743], [50.25414279279203, 28.984975961223128], [50.26032995005777, 28.98094835883402], [50.26186945650801, 28.980956817717747], [50.26184702790718, 28.984115856645193], [50.263380186318, 28.985026881588027], [50.26494209030623, 28.981876265949882], [50.270599670619916, 28.980101833963698], [50.270115014485555, 28.97603741798711], [50.27371018724545, 28.975605570692146], [50.27365659717075, 28.98327754622226], [50.27774324114849, 28.986007415299436], [50.278779025708516, 28.984659046123383], [50.27725514570396, 28.98239431604598], [50.280856756579254, 28.981059695105984], [50.27985229296397, 28.977895149657865], [50.28190491703794, 28.977906125231236], [50.28552181678521, 28.974314904497145], [50.283988614424715, 28.973404129918723], [50.27986791899772, 28.9756386822859], [50.276272766903034, 28.976070694624458], [50.27372279364287, 28.973800398693285], [50.27477109099287, 28.970646883563685], [50.28302144829678, 28.964824071039935], [50.2881523693899, 28.96485131916175], [50.29021705447769, 28.963056982202378], [50.29023244622609, 28.96080050473607], [50.29229394518485, 28.959457428645507], [50.29845378852072, 28.959038376644884], [50.30515075630646, 28.955011314229914], [50.309765178765986, 28.95548637727396], [50.311805437787534, 28.957302080721306], [50.309729260085874, 28.960901948835566], [50.307160879332585, 28.96134005951282], [50.30560960134949, 28.963137311840352], [50.30203919124353, 28.959959649094152], [50.29379026415219, 28.965783657331503], [50.29115712057309, 28.975698654773005], [50.28703338796168, 28.978384721217974], [50.28701172623606, 28.981543778994574], [50.28546599943005, 28.98243819513091], [50.285957481020795, 28.985599976073708], [50.282340194624915, 28.989191195952166], [50.279210844802044, 28.99639540236561], [50.27611564276182, 28.998635314535775], [50.275060785625804, 29.002691405425548], [50.26525105781381, 29.010761675125632], [50.26319779229474, 29.010750433810927], [50.26164179963407, 29.012998428660737], [50.255459226483595, 29.016123462122135], [50.24718358377414, 29.02465215993176], [50.23791950301509, 29.027759063287643], [50.23584929783112, 29.030003825544167], [50.23174537576044, 29.029529114097937], [50.227628057527745, 29.03085941602586], [50.220389437112686, 29.03758714828368], [50.21934896404192, 29.039386316103577], [50.219835259924196, 29.042999562977812], [50.22285858808594, 29.050689233826702], [50.22028086146704, 29.052028196022214], [50.2197469659434, 29.05473290564737], [50.216648742464606, 29.056971372475218], [50.21765878914433, 29.05923376907886], [50.21456380521297, 29.061020901798837], [50.21606351351769, 29.066445279242213], [50.2139886262648, 29.069140948626497], [50.21291685052079, 29.075001570741893], [50.20878714057374, 29.077685085383692], [50.207218578220356, 29.081286223257134], [50.20050268829716, 29.086210663142868], [50.2004922323076, 29.087564496390907], [50.20356395185225, 29.088936661498177], [50.20406723776828, 29.0902935438494], [50.201984589864686, 29.093891558000905], [50.1958094269926, 29.09520857482395], [50.194774951239765, 29.096104964444525], [50.195784876289416, 29.09836751076362], [50.19217458999984, 29.100151005521656], [50.19063333882828, 29.100141714232993], [50.190137250028485, 29.097882234293053], [50.18809291748957, 29.096515984614484], [50.185499392787456, 29.09965934018976], [50.180340473367934, 29.102335692492208], [50.18186033936715, 29.105052749919743], [50.18029040889595, 29.1086535318773], [50.175641111796516, 29.111784101495896], [50.16998200473361, 29.11265178289203], [50.16789771462488, 29.11624922342114], [50.16532493586698, 29.116684526978283]], [[50.19434904147171, 29.084819959091693], [50.195897075990544, 29.083926648448415], [50.19488026317678, 29.082566655743094], [50.19333224081349, 29.083459955059183], [50.19434904147171, 29.084819959091693]], [[50.199010520686336, 29.07988358176882], [50.20055147342782, 29.079892770992334], [50.20468841122616, 29.07630695869936], [50.20733255802585, 29.06639400397946], [50.20684315524357, 29.06323201058992], [50.210989507398246, 29.058292136244024], [50.21207148541912, 29.051077669699676], [50.21310193019266, 29.05063241085505], [50.212612413373336, 29.04747042919727], [50.21416998962835, 29.04522304323556], [50.21315672470669, 29.043411901831856], [50.20902829983059, 29.046095460584244], [50.20646433134067, 29.045629032462344], [50.2044000165412, 29.046970722517706], [50.20080560001004, 29.04694937857866], [50.195125710111625, 29.050977161136043], [50.19613872725815, 29.05278843192007], [50.19921285327234, 29.05370940278037], [50.19765831822398, 29.05550532414985], [50.19918496129159, 29.057319640513157], [50.19759892221739, 29.06317707200339], [50.201162585253726, 29.067260026173493], [50.19960787422053, 29.069055963241254], [50.200610691511834, 29.072221036706903], [50.198004189522564, 29.0771697775783], [50.199010520686336, 29.07988358176882]], [[50.274635724924394, 28.99005247049914], [50.27670428920837, 28.98780706818897], [50.272614445813005, 28.98552845966881], [50.27157541095554, 28.98732807156826], [50.274635724924394, 28.99005247049914]]]}, "properties": {"date": "2026-05-08", "sensing_time": "2026-05-08T02:37:59.840074Z", "sensor": "Sentinel-1", "platform": "S1C", "kind": "core", "source": "S1 VV threshold (~4.4 dB below scene background)"}}, {"type": "Feature", "geometry": {"type": "Polygon", "coordinates": [[[50.285639577882435, 28.957165702820493], [50.286180487967556, 28.95310676584462], [50.28875799459489, 28.951315165126125], [50.28826348107915, 28.948604675961914], [50.29187912410296, 28.945013247259737], [50.297522074450036, 28.945042819453292], [50.304737167386094, 28.94011583449843], [50.30832198138772, 28.941036931986527], [50.30880800038848, 28.945101254152533], [50.30674399252521, 28.946895892695213], [50.303671993943944, 28.945977406028188], [50.30109184237248, 28.94822059798989], [50.30158971702024, 28.950479748512933], [50.30055457439019, 28.95182831110833], [50.294389046515306, 28.953150060251186], [50.2912893255312, 28.9562929560991], [50.285639577882435, 28.957165702820493]]]}, "properties": {"date": "2026-05-08", "sensing_time": "2026-05-08T02:37:59.840074Z", "sensor": "Sentinel-1", "platform": "S1C", "kind": "core", "source": "S1 VV threshold (~4.4 dB below scene background)"}}, {"type": "Feature", "geometry": {"type": "Polygon", "coordinates": [[[50.031700019350716, 28.95422393247033], [50.03071602834833, 28.949703883982046], [50.04310232228879, 28.94166917586745], [50.04565464727255, 28.943041192267987], [50.0472182804356, 28.940344481758146], [50.05185939584332, 28.937669463952066], [50.055954640232905, 28.938600846990163], [50.06834578055101, 28.929661182478583], [50.07452452597537, 28.926995994155092], [50.08067111203712, 28.927940708757067], [50.07908858429253, 28.93289420556183], [50.074961277795786, 28.935573710831676], [50.07389129892498, 28.940530656659337], [50.070276512682355, 28.94321353418903], [50.07076933492654, 28.945473436020606], [50.06871342351545, 28.94591052419273], [50.06457722409321, 28.949492229845106], [50.065591048373605, 28.950853170262377], [50.06764302797729, 28.950867403660745], [50.067101722580745, 28.95402274410951], [50.0640196028644, 28.954452638100857], [50.06456100395398, 28.951297312433265], [50.06150743478699, 28.948568258136437], [50.05638988114276, 28.947178575424118], [50.05586872140848, 28.948077516936944], [50.04765280370351, 28.94892221974005], [50.045067194854965, 28.951160383847697], [50.04096325239412, 28.95113119703425], [50.038932114121614, 28.948860220117012], [50.03688019115877, 28.948845549863783], [50.034269238892946, 28.95379110080958], [50.031700019350716, 28.95422393247033]]]}, "properties": {"date": "2026-05-08", "sensing_time": "2026-05-08T02:37:59.840074Z", "sensor": "Sentinel-1", "platform": "S1C", "kind": "core", "source": "S1 VV threshold (~4.4 dB below scene background)"}}, {"type": "Feature", "geometry": {"type": "Polygon", "coordinates": [[[49.9995091174119, 28.887196591511465], [49.99645478407287, 28.88491738798325], [49.99701080247071, 28.880408543412678], [50.00011256167008, 28.87772379875275], [50.003179697551474, 28.878649116892255], [50.00474339701968, 28.87595287732418], [50.007836252271524, 28.874170481331422], [50.00785340133333, 28.87236540824472], [50.01042067859613, 28.871932980322228], [50.01194993520564, 28.87284679897702], [50.01504683468696, 28.870612962163808], [50.01709720559412, 28.870627928442715], [50.01864770491231, 28.869285322801055], [50.01871553075555, 28.862064998703794], [50.021265605506, 28.86343743932159], [50.024866151637454, 28.86210962460173], [50.024294593960626, 28.868423711129022], [50.02221469010031, 28.871567748477528], [50.01758857428719, 28.872888013650368], [50.015004272992606, 28.87512565494526], [50.008754363690436, 28.88545972316412], [50.006690823209695, 28.886798424702402], [49.9995091174119, 28.887196591511465]]]}, "properties": {"date": "2026-05-08", "sensing_time": "2026-05-08T02:37:59.840074Z", "sensor": "Sentinel-1", "platform": "S1C", "kind": "core", "source": "S1 VV threshold (~4.4 dB below scene background)"}}, {"type": "Feature", "geometry": {"type": "Polygon", "coordinates": [[[50.051227232887584, 28.95075266058158], [50.048699386121875, 28.946673132902735], [50.04406607182088, 28.948445490819626], [50.04459561617375, 28.946644060955997], [50.04717286083269, 28.945308439557856], [50.04771471470337, 28.942153188142335], [50.0497665122989, 28.942167690155372], [50.05078007116256, 28.943528737516957], [50.055408963457154, 28.942207409453005], [50.0615521771496, 28.943604282162763], [50.06051811749106, 28.944499665668992], [50.05744442805743, 28.94402687505168], [50.051227232887584, 28.95075266058158]]]}, "properties": {"date": "2026-05-09", "sensing_time": "2026-05-09T02:38:09.740655Z", "sensor": "Sentinel-1", "platform": "S1D", "kind": "core", "source": "S1 VV threshold (~4.4 dB below scene background)"}}, {"type": "Feature", "geometry": {"type": "Polygon", "coordinates": [[[50.243118669949446, 28.94835834158113], [50.24261879553428, 28.946550288741594], [50.24624571078049, 28.941606235322716], [50.260185759921384, 28.929046847823606], [50.2643018107642, 28.927264152763744], [50.264273131791455, 28.93132580862273], [50.26169891556885, 28.932665652414393], [50.261169981677334, 28.9349193107508], [50.24929752415356, 28.945233777569204], [50.243118669949446, 28.94835834158113]]]}, "properties": {"date": "2026-05-09", "sensing_time": "2026-05-09T02:38:09.740655Z", "sensor": "Sentinel-1", "platform": "S1D", "kind": "core", "source": "S1 VV threshold (~4.4 dB below scene background)"}}, {"type": "Feature", "geometry": {"type": "Polygon", "coordinates": [[[50.063624300801536, 28.941362218622693], [50.06055882888801, 28.93998695894505], [50.05799004598951, 28.940420303894005], [50.05595054979754, 28.939052117295688], [50.05650027555854, 28.934994279536333], [50.054990186462796, 28.9318245915841], [50.057615909090565, 28.925073501547907], [50.05915450929599, 28.92508426201568], [50.06217078771023, 28.931874807372758], [50.06421428433929, 28.932791628037265], [50.069411865397555, 28.925155549264648], [50.07146736198926, 28.92471843972595], [50.07400362682379, 28.927895014414393], [50.07656004355601, 28.928815175554917], [50.077048946029784, 28.931526334221424], [50.06674647007899, 28.93641960694679], [50.06312759180586, 28.939553564446463], [50.063624300801536, 28.941362218622693]]]}, "properties": {"date": "2026-05-09", "sensing_time": "2026-05-09T02:38:09.740655Z", "sensor": "Sentinel-1", "platform": "S1D", "kind": "core", "source": "S1 VV threshold (~4.4 dB below scene background)"}}, {"type": "Feature", "geometry": {"type": "Polygon", "coordinates": [[[50.33146007590465, 28.852695494808053], [50.331480279775974, 28.849536346891156], [50.339726372704924, 28.842355819269912], [50.340255951685656, 28.839650476979767], [50.34231439685107, 28.838306561131237], [50.34641138864778, 28.838777795832208], [50.34278716639745, 28.844627378048695], [50.33919391266891, 28.845512465901958], [50.33146007590465, 28.852695494808053]]]}, "properties": {"date": "2026-05-09", "sensing_time": "2026-05-09T02:38:09.740655Z", "sensor": "Sentinel-1", "platform": "S1D", "kind": "core", "source": "S1 VV threshold (~4.4 dB below scene background)"}}, {"type": "Feature", "geometry": {"type": "Polygon", "coordinates": [[[49.8907208591936, 29.025780134260707], [49.91853385642343, 28.971223870463735], [49.936719277689086, 28.943410873233905], [49.94902118030998, 28.930574105281675], [49.95543956428609, 28.918272202660788], [49.97255525488906, 28.895807858744387], [49.97202038955772, 28.88885460943693], [49.960788217599514, 28.884575686786185], [49.95276523762937, 28.884040821454843], [49.94634685365326, 28.882436225460815], [49.943672526996544, 28.880831629466787], [49.945277122990575, 28.884040821454843], [49.95330010296072, 28.8872500134429], [49.95757902561146, 28.890459205430957], [49.96132308293086, 28.891528936093643], [49.96132308293086, 28.891528936093643], [49.960253352268175, 28.897947320069758], [49.9543698336234, 28.905970300039904], [49.94186251590706, 28.922214955498774], [49.93159649307894, 28.935175809319276], [49.92518022881137, 28.944800205720636], [49.928260035659804, 28.94518518157669], [49.923640325387154, 28.950831494132157], [49.92120214496548, 28.95801771011184], [49.90224712020926, 28.99994769064798], [49.89390007849751, 29.00510321641112], [49.89340907604387, 29.009276737266998], [49.89586408831204, 29.009276737266998], [49.889972058868445, 29.01909678633965], [49.88899005396118, 29.02498881578324], [49.890708562548895, 29.02572531946369], [49.8907208591936, 29.025780134260707]]]}, "properties": {"date": "2026-05-11", "sensing_time": "2026-05-11T07:16:19.024000Z", "sensor": "Sentinel-2", "platform": "S2B", "kind": "sheen", "source": "manual trace from S2 true colour"}}, {"type": "Feature", "geometry": {"type": "Polygon", "coordinates": [[[49.989520520982744, 28.869929506027976], [49.99945056222287, 28.8959958642833], [50.010621858618, 28.910890926143484], [50.02179315501314, 28.92330347769364], [50.03234382383077, 28.927647870736195], [50.028620058365725, 28.94192230501887], [50.03358507898579, 28.95309360141401], [50.02489629290068, 28.958679249611578], [50.02799943078822, 28.96922991842921], [50.04041198233838, 28.973574311471765], [50.04475637538093, 28.983504352711886], [50.070202106058744, 28.979159959669335], [50.072684616368775, 28.967988663274195], [50.072684616368775, 28.949369835948964], [50.07764963698884, 28.9363366568213], [50.081373402453885, 28.935095401666285], [50.08695905065145, 28.930751008623734], [50.07144336121376, 28.92578598800367], [50.06337520270616, 28.925165360426163], [50.068340223326224, 28.908408415833456], [50.06958147848124, 28.894133981550777], [50.06958147848124, 28.889168960930714], [50.07578775425631, 28.88296268515564], [50.08075277487637, 28.877997664535577], [50.08695905065145, 28.864964485407913], [50.08944156096148, 28.8556550717453], [50.08633842307395, 28.849448795970222], [50.08820030580647, 28.845104402927667], [50.10930164344173, 28.842621892617636], [50.12171419499188, 28.838277499575085], [50.127299843189455, 28.83393310653253], [50.13722988442958, 28.826485575602437], [50.139712394739604, 28.824003065292406], [50.14157427747213, 28.818417417094835], [50.142194905049635, 28.809108003432222], [50.13660925685207, 28.80662549312219], [50.12854109834447, 28.801660472502128], [50.11736980194933, 28.80662549312219], [50.096889091891576, 28.816555534362315], [50.08199403003139, 28.8153142792073], [50.063995830283666, 28.8153142792073], [50.052824533888526, 28.81965867224985], [50.0348263341408, 28.818417417094835], [50.01869001712561, 28.82586494802493], [50.01682813439308, 28.833312478955023], [50.00875997588548, 28.8475869132377], [50.00875997588548, 28.864964485407913], [49.99696805191284, 28.859999464787855], [49.989520520982744, 28.866826368140437], [49.989520520982744, 28.869929506027976]]]}, "properties": {"date": "2026-05-11", "sensing_time": "2026-05-11T07:16:19.024000Z", "sensor": "Sentinel-2", "platform": "S2B", "kind": "sheen", "source": "manual trace from S2 true colour"}}, {"type": "Feature", "geometry": {"type": "Polygon", "coordinates": [[[50.21154878544865, 28.828079299104115], [50.22468752212348, 28.832595739836087], [50.240289771924836, 28.827668713583027], [50.249733238909876, 28.829311055667382], [50.25096499547314, 28.831363983272823], [50.25548143620511, 28.835469838483707], [50.257944949331645, 28.835469838483707], [50.257944949331645, 28.83670159504697], [50.257944949331645, 28.83670159504697], [50.259997876937085, 28.846555647553096], [50.24726972578334, 28.85066150276398], [50.25342850859967, 28.851893259327245], [50.26040846245817, 28.854767357974865], [50.26738841631668, 28.85312501589051], [50.27683188330171, 28.866263752565338], [50.283811837160215, 28.874886048508195], [50.30064584352484, 28.874886048508195], [50.30146701456702, 28.867084923607518], [50.306394040820074, 28.876117805071463], [50.32117511957926, 28.875707219550375], [50.333903270732996, 28.872422535381666], [50.34704200740783, 28.86256848287554], [50.36059132960375, 28.85599911453813], [50.36839245450443, 28.848608575158536], [50.371677138673135, 28.841628621300035], [50.37496182284184, 28.832595739836087], [50.36264425720919, 28.839165108173503], [50.355664303350686, 28.84491330546874], [50.35894898751939, 28.83013222670956], [50.353611375745245, 28.832185154315], [50.35689605991395, 28.825615785977586], [50.3445784942813, 28.829311055667382], [50.32487038926905, 28.83505925296262], [50.31008931050987, 28.83793335161024], [50.305983455298986, 28.83998627921568], [50.313784580199666, 28.83464866744153], [50.321996290621435, 28.829311055667382], [50.33431385625409, 28.822741687329966], [50.33431385625409, 28.822741687329966], [50.343346737718036, 28.817814661076905], [50.361412500645926, 28.808371194091873], [50.37003479658878, 28.80590768096534], [50.373730066278576, 28.8038547533599], [50.379888849094904, 28.799338312627928], [50.38645821743232, 28.796464213980308], [50.39631226993844, 28.795232457417043], [50.395491098896265, 28.799338312627928], [50.38892173055885, 28.8038547533599], [50.3835841187847, 28.807960608570784], [50.379478263573816, 28.810013536176225], [50.3872793884745, 28.80878177961296], [50.39220641472755, 28.80878177961296], [50.40288163827586, 28.800159483670104], [50.41519920390851, 28.799338312627928], [50.42505325641463, 28.79810655606466], [50.43244379579422, 28.794000700853775], [50.4402449206949, 28.793590115332687], [50.445171946947966, 28.78784191803745], [50.45133072976429, 28.777577280010238], [50.454615413933, 28.771829082715], [50.47062824925545, 28.76402795781432], [50.483766985930274, 28.7541739053082], [50.50306450542143, 28.740624583112282], [50.515382071054084, 28.73118111612725], [50.52852080772891, 28.722558820184393], [50.546997156177895, 28.707777741425208], [50.56177823493707, 28.69710251787691], [50.56629467566905, 28.6831426101599], [50.56629467566905, 28.67328855765378], [50.525236123560205, 28.70202954412997], [50.50224333437925, 28.718042379452417], [50.48212464384592, 28.735286971338134], [50.463237709875855, 28.749657464576227], [50.44599311799014, 28.757869174997996], [50.4369602365262, 28.768133813025205], [50.43121203923096, 28.76977615510956], [50.42053681568266, 28.774292595841533], [50.41232510526089, 28.778809036573506], [50.40452398036021, 28.777577280010238], [50.403702809318034, 28.782504306263302], [50.399596954107146, 28.776345523446974], [50.391795829206465, 28.784557233868743], [50.379888849094904, 28.784557233868743], [50.375782993884016, 28.788663089079627], [50.371677138673135, 28.792358358769423], [50.35935957304048, 28.794000700853775], [50.35443254678742, 28.800159483670104], [50.33883029698606, 28.805497095444252], [50.32733390239559, 28.810013536176225], [50.31501633676293, 28.81576173347146], [50.29982467248266, 28.81904641764017], [50.28873886341327, 28.820688759724526], [50.27929539642824, 28.813298220344933], [50.282580080596944, 28.808371194091873], [50.28627535028674, 28.804675924402076], [50.288328277892184, 28.800570069191192], [50.28175890955477, 28.80303358231772], [50.275600126738446, 28.807960608570784], [50.264514317669054, 28.806728852007517], [50.257944949331645, 28.807550023049696], [50.257944949331645, 28.807550023049696], [50.2558920217262, 28.81206646378167], [50.25671319276837, 28.814940562429285], [50.25917670589491, 28.818225246597994], [50.246448554741164, 28.817814661076905], [50.232078061503074, 28.820278174203438], [50.21976049587042, 28.822331101808878], [50.21154878544865, 28.828079299104115]]]}, "properties": {"date": "2026-05-11", "sensing_time": "2026-05-11T07:16:19.024000Z", "sensor": "Sentinel-2", "platform": "S2B", "kind": "sheen", "source": "manual trace from S2 true colour"}}, {"type": "Feature", "geometry": {"type": "Polygon", "coordinates": [[[50.5454454025093, 29.26518684926844], [50.53927617344599, 29.263811820435528], [50.53981502159468, 29.258398047196067], [50.5377668716809, 29.256134467839782], [50.53417106901544, 29.254768079040293], [50.53264381358934, 29.251152326818175], [50.53727465129915, 29.251168433517414], [50.538289541348334, 29.254331062763693], [50.54239592833608, 29.256601695543743], [50.542379856265484, 29.260212062288968], [50.546995196069545, 29.26383820331611], [50.5454454025093, 29.26518684926844]]]}, "properties": {"date": "2026-05-13", "sensing_time": "2026-05-13T14:41:36.971369Z", "sensor": "Sentinel-1", "platform": "S1D", "kind": "core", "source": "S1 VV threshold (~4.4 dB below scene background)"}}, {"type": "Feature", "geometry": {"type": "Polygon", "coordinates": [[[50.464769098958726, 28.944457898244412], [50.46272637639356, 28.942644475841014], [50.46478301616812, 28.941750027720754], [50.46479693146448, 28.939042156100815], [50.46634281629407, 28.93769432973922], [50.46839472090029, 28.937702448852818], [50.467872521994614, 28.93950567114386], [50.468893889524885, 28.94041234771797], [50.474539055757795, 28.939983182313487], [50.480193188667634, 28.937748526822684], [50.48277152235699, 28.93505052588335], [50.48636449950469, 28.934612960556017], [50.487914479320004, 28.932362253008517], [50.48638007465729, 28.931453762606477], [50.48278048516981, 28.933245271234625], [50.483306870037204, 28.93053935792498], [50.499277492053146, 28.91615734821705], [50.50184185623945, 28.91616685825741], [50.50183538648288, 28.91752080673317], [50.49462882014327, 28.92290983931459], [50.498721212792134, 28.925181754121358], [50.51669426896587, 28.92073422421844], [50.52490267732775, 28.920312109991013], [50.527463061531904, 28.921223768504746], [50.52900787900037, 28.919875206057398], [50.53465373729296, 28.91899218424289], [50.532585990108366, 28.922595622847744], [50.52233199771598, 28.92165698965168], [50.51668589813871, 28.92253949159088], [50.50999903424229, 28.926577239759197], [50.501277159500006, 28.926996539453008], [50.49767579931374, 28.929239767702736], [50.492548630070914, 28.92876921753109], [50.49099880421353, 28.931019981545194], [50.493552561763195, 28.93328622652092], [50.489440063629196, 28.935075982667612], [50.48531850570448, 28.938670865336682], [50.47657966730936, 28.94224774081583], [50.464769098958726, 28.944457898244412]]]}, "properties": {"date": "2026-05-13", "sensing_time": "2026-05-13T14:41:36.971369Z", "sensor": "Sentinel-1", "platform": "S1D", "kind": "core", "source": "S1 VV threshold (~4.4 dB below scene background)"}}, {"type": "Feature", "geometry": {"type": "Polygon", "coordinates": [[[50.53875485651863, 28.91945761881334], [50.5351706515379, 28.918091319075774], [50.542875804609366, 28.915409740779833], [50.54339855937114, 28.913154885280022], [50.54597072695617, 28.91135827693093], [50.54445976944943, 28.905034608104515], [50.54753865645102, 28.904593658327716], [50.54956459531156, 28.910467691419004], [50.54850958480403, 28.917234048638715], [50.54439667048397, 28.919476824728143], [50.53875485651863, 28.91945761881334]]]}, "properties": {"date": "2026-05-13", "sensing_time": "2026-05-13T14:41:36.971369Z", "sensor": "Sentinel-1", "platform": "S1D", "kind": "core", "source": "S1 VV threshold (~4.4 dB below scene background)"}}, {"type": "Feature", "geometry": {"type": "Polygon", "coordinates": [[[50.11648473290899, 28.878085600146814], [50.11448773334387, 28.871754194658426], [50.116545819495634, 28.870865084031077], [50.12115550342138, 28.871346524162277], [50.12323246812613, 28.86820089318642], [50.126315597663265, 28.86731829343043], [50.12935730068159, 28.871399747978217], [50.126782917224695, 28.87273702012321], [50.123194584722796, 28.872713726587197], [50.12060109112249, 28.876307291912823], [50.11648473290899, 28.878085600146814]]]}, "properties": {"date": "2026-05-13", "sensing_time": "2026-05-13T14:41:36.971369Z", "sensor": "Sentinel-1", "platform": "S1D", "kind": "core", "source": "S1 VV threshold (~4.4 dB below scene background)"}}, {"type": "Feature", "geometry": {"type": "Polygon", "coordinates": [[[50.08263455752295, 28.87966466894156], [50.08059589173614, 28.878296863010235], [50.078581172101416, 28.87422136242664], [50.07963822769211, 28.870618144683913], [50.07711509021474, 28.866087843446255], [50.07867272902992, 28.8638419706669], [50.083786548684174, 28.865230737745858], [50.084799840994584, 28.866591537539616], [50.083214561558016, 28.87199643101485], [50.08469701490908, 28.878324777213262], [50.08263455752295, 28.87966466894156]]]}, "properties": {"date": "2026-05-13", "sensing_time": "2026-05-13T14:41:36.971369Z", "sensor": "Sentinel-1", "platform": "S1D", "kind": "core", "source": "S1 VV threshold (~4.4 dB below scene background)"}}, {"type": "Feature", "geometry": {"type": "Polygon", "coordinates": [[[50.31570803071968, 28.98801122358697], [50.30803092137484, 28.98481275676751], [50.3039495504282, 28.98118120388005], [50.30036340221134, 28.9802599724863], [50.29781888684029, 28.977087533512794], [50.28807206505859, 28.976584981257723], [50.2875681897639, 28.975228381062305], [50.29067167591903, 28.971634296574088], [50.28965466961933, 28.970274996172733], [50.27529049896861, 28.969747062232727], [50.27123616167247, 28.962504190357375], [50.273807856623414, 28.961615474889985], [50.28304010677346, 28.962116302951102], [50.2886500335883, 28.967110508549965], [50.295836546385026, 28.96669700760312], [50.29479810487735, 28.968496814173864], [50.29684139852793, 28.969861445437036], [50.297339273708296, 28.972120604665786], [50.30040590876027, 28.973941836005206], [50.30604441565405, 28.974873669583186], [50.31063578874873, 28.978959087043236], [50.32138869545663, 28.982624272370664], [50.323954615167835, 28.982637196460566], [50.3296287417738, 28.9781524771009], [50.33015934622886, 28.975447244255147], [50.33427320921751, 28.97411373053248], [50.34146007714042, 28.973697797322338], [50.34503501869537, 28.976423134927437], [50.346597169116265, 28.972820223549355], [50.35276325512021, 28.97149609363739], [50.362543198567884, 28.966578334618173], [50.36977866504821, 28.95803742942964], [50.373894066648354, 28.956251378329124], [50.390399196455625, 28.941433691746226], [50.400695316777025, 28.9351614691881], [50.40688935314086, 28.928419112471317], [50.41358278145121, 28.92393523278815], [50.433625305713974, 28.91679988987126], [50.44388753931666, 28.915940014297487], [50.443367443290846, 28.917291831264336], [50.43002287665987, 28.91904129735213], [50.416647573537496, 28.926205146520676], [50.40942328246931, 28.93384608508472], [50.40016156828853, 28.93876964138253], [50.401179735131564, 28.94012813046597], [50.41043897029667, 28.935655814203624], [50.41454266081935, 28.935673724284904], [50.41865894771414, 28.93343496541638], [50.426876100385364, 28.931664918644465], [50.43151228817935, 28.928074011686483], [50.4474201904541, 28.92678627698804], [50.45153780929525, 28.924095183381894], [50.463866185298464, 28.920534257221558], [50.46747717602151, 28.916486681120066], [50.47313017228156, 28.91425229997625], [50.476207340630964, 28.914264302889087], [50.48238632713579, 28.909323631359108], [50.48342318041271, 28.907070991796324], [50.48907312144842, 28.905287243499366], [50.48959477381693, 28.903483923043584], [50.49835377817268, 28.894941646946492], [50.506568748341714, 28.892715353197158], [50.51635089635323, 28.884175616233353], [50.51688240983447, 28.88011557975371], [50.52769804476787, 28.869322045684427], [50.52925021608597, 28.86616817597114], [50.540545936754114, 28.86214518254839], [50.54514960928809, 28.864417437445155], [50.548233147734784, 28.862622487560614], [50.55130882878112, 28.862632757846896], [50.55127781358237, 28.869853922352913], [50.5405141782384, 28.86936633678321], [50.53845561806384, 28.87116461890224], [50.53383568565995, 28.872502707020278], [50.52560031519149, 28.879695219686496], [50.52406222882994, 28.879689797182], [50.52303271474375, 28.88058881251952], [50.52404988461298, 28.882397717493696], [50.51993783989171, 28.88463976813559], [50.520938422785186, 28.890059250129564], [50.516311159729476, 28.89275067805333], [50.516298607725915, 28.895458590033236], [50.50807723519672, 28.89903942951199], [50.50549617524228, 28.902640583126097], [50.50190221918853, 28.903529992619088], [50.48902447170703, 28.915216189117064], [50.48542771948584, 28.91655646535204], [50.485931691150995, 28.918363684058306], [50.48438411447048, 28.920163060822954], [50.4725579395489, 28.925984453242858], [50.47152752443747, 28.926883057543694], [50.47202901442759, 28.929141636307317], [50.469968094093375, 28.930938826812028], [50.46122473009333, 28.93541733547557], [50.45507152195265, 28.934941246653697], [50.44839346741087, 28.936719331578853], [50.447369922407624, 28.936263812731593], [50.44840541624065, 28.934462776430518], [50.453542107010975, 28.933129762383988], [50.45611865012438, 28.930883589536872], [50.45510220774844, 28.92907419356431], [50.45100112609751, 28.92860621167321], [50.44432100662363, 28.930835411935483], [50.44174179592735, 28.933532666250766], [50.43814868917995, 28.933969038632952], [50.43660250130759, 28.935316537764052], [50.43506606371137, 28.934858778353515], [50.43249143276084, 28.936653229669663], [50.43759187266389, 28.94209047744337], [50.442719412664594, 28.94256312529494], [50.44683778117634, 28.93987219182241], [50.453494751230586, 28.942155987982815], [50.45400064961937, 28.943512002850287], [50.443718888613546, 28.947531779875757], [50.4426880121238, 28.948430154374577], [50.443706831781235, 28.949788328848193], [50.450376274365645, 28.949815733385904], [50.45295093252889, 28.948020943669384], [50.45554202040259, 28.943066926301558], [50.45912834480018, 28.94398402739234], [50.45859891286658, 28.94714114274204], [50.45499831123689, 28.94893189094257], [50.450867883230906, 28.95387961888221], [50.43854485432614, 28.955634042173646], [50.42824891373853, 28.961909145278277], [50.42312299981745, 28.960984627687463], [50.42057766753824, 28.957363145053552], [50.41852539215938, 28.957354291601135], [50.416462995863476, 28.959150634881055], [50.406198884493385, 28.95955704441166], [50.40415432297603, 28.95819405313472], [50.406216908952544, 28.956397901064495], [50.40109407372186, 28.95502124408082], [50.39545046556694, 28.954996006419016], [50.39183798586437, 28.958590263512367], [50.38978305079279, 28.95903227613004], [50.38928056996125, 28.95722472905824], [50.39391130096427, 28.954989082344454], [50.39238004041135, 28.953628224789735], [50.38312646498365, 28.956745338545367], [50.37745038575116, 28.96213499009762], [50.378978877155234, 28.963947318331886], [50.377947285933885, 28.964845184082908], [50.37538448687593, 28.964381993669416], [50.372789062775006, 28.96933438831607], [50.36456531094316, 28.971552365813878], [50.353733431047885, 28.980527037842503], [50.34189324481869, 28.986336685238324], [50.33932148770446, 28.987226698896773], [50.31570803071968, 28.98801122358697]], [[50.40775352978507, 28.956855991093057], [50.40981090967043, 28.955962395516483], [50.408792477996116, 28.95460397103877], [50.40673511672797, 28.955497551483816], [50.40775352978507, 28.956855991093057]], [[50.426238844720125, 28.954228175000306], [50.43137678381256, 28.95289602817022], [50.43241026196085, 28.951546434160797], [50.42728978234021, 28.949719463472263], [50.425230180291834, 28.95106463920442], [50.426238844720125, 28.954228175000306]], [[50.39293519565828, 28.946409650513907], [50.400130374973635, 28.944185322986336], [50.40167975367901, 28.942386946380942], [50.39809401801102, 28.941468322225383], [50.39500822248664, 28.942808441804853], [50.391917077704605, 28.945051101002896], [50.39293519565828, 28.946409650513907]]]}, "properties": {"date": "2026-05-13", "sensing_time": "2026-05-13T14:41:36.971369Z", "sensor": "Sentinel-1", "platform": "S1D", "kind": "core", "source": "S1 VV threshold (~4.4 dB below scene background)"}}, {"type": "Feature", "geometry": {"type": "Polygon", "coordinates": [[[50.129899988817655, 28.867792784285836], [50.130431367305704, 28.865539669456187], [50.13505210326728, 28.86466677612987], [50.137641082666235, 28.86152419556211], [50.13458064102651, 28.859699348766043], [50.13048394839329, 28.859221682899527], [50.13152780816048, 28.85697186385332], [50.12897638036432, 28.8556014788409], [50.12950395088609, 28.853799647953103], [50.12695262698505, 28.85242922623053], [50.12696393474426, 28.851075371095856], [50.132594093195344, 28.85201432135141], [50.135639348696465, 28.85564435333006], [50.13921223863773, 28.857472448017287], [50.147918174045714, 28.858430364593293], [50.148924900179054, 28.860693274370185], [50.15198562981752, 28.86251780113167], [50.151458396508026, 28.864319724909844], [50.146834112293384, 28.86564447035077], [50.14530373548045, 28.86473215735897], [50.145340651552196, 28.860219292194415], [50.142785255302506, 28.859300450170416], [50.13606233677345, 28.866478490169083], [50.129899988817655, 28.867792784285836]]]}, "properties": {"date": "2026-05-13", "sensing_time": "2026-05-13T14:41:36.971369Z", "sensor": "Sentinel-1", "platform": "S1D", "kind": "core", "source": "S1 VV threshold (~4.4 dB below scene background)"}}, {"type": "Feature", "geometry": {"type": "Polygon", "coordinates": [[[50.090962626687364, 28.86527931585974], [50.0899453339519, 28.864369840279668], [50.090994038505166, 28.861669077179616], [50.09408896274956, 28.859433374309425], [50.10900295222508, 28.853665749823335], [50.106463484444234, 28.850941098419362], [50.097238327776445, 28.8508796592711], [50.096737518396374, 28.849522383156472], [50.10136554970921, 28.847748068912246], [50.11110677227418, 28.847361315099757], [50.11467129201212, 28.85009261408842], [50.1208137849908, 28.851035416427404], [50.119773560187355, 28.852833866712626], [50.10485638572156, 28.85905398080705], [50.10330324835175, 28.860848890258513], [50.09817378135068, 28.861265985407506], [50.095074977603645, 28.863953062520864], [50.090962626687364, 28.86527931585974]]]}, "properties": {"date": "2026-05-13", "sensing_time": "2026-05-13T14:41:36.971369Z", "sensor": "Sentinel-1", "platform": "S1D", "kind": "core", "source": "S1 VV threshold (~4.4 dB below scene background)"}}, {"type": "Feature", "geometry": {"type": "Polygon", "coordinates": [[[50.06739630650665, 28.978394878052757], [50.06432970542381, 28.977019685755543], [50.06281473668583, 28.974301354611523], [50.06492397628187, 28.967997870707713], [50.07320561439444, 28.959931812706547], [50.07375078768807, 28.95632517552476], [50.077357951923986, 28.954544762158065], [50.07736995236338, 28.953190945994184], [50.079429966950805, 28.95230245603629], [50.08254776319745, 28.94781074918216], [50.08717647619976, 28.9464883243504], [50.087709222364786, 28.944235433202504], [50.08618220760696, 28.942871171146738], [50.0805277168367, 28.94418656052932], [50.07645202351804, 28.94099955242226], [50.07125412583194, 28.948635879094905], [50.068164102057274, 28.949968414906316], [50.06298545333565, 28.955348037164796], [50.05732184054845, 28.957564965715], [50.05323405196717, 28.955731071800095], [50.06052626051658, 28.943597124570616], [50.057017276017895, 28.934546602965828], [50.051346468143784, 28.93766584986703], [50.04984061746828, 28.934044838255247], [50.05037820872167, 28.931340837746177], [50.0534842862753, 28.92820361665951], [50.054034037947886, 28.92414578341514], [50.057632232012985, 28.923268415523868], [50.062300734700194, 28.917434101070548], [50.06128726644898, 28.916073137629905], [50.060257552925314, 28.916517256588598], [50.06078664042023, 28.91471574438371], [50.062854131153344, 28.912924943299544], [50.073146404457624, 28.908934452098475], [50.072669730286925, 28.90486945088933], [50.07371130042323, 28.903071407592073], [50.07218104691742, 28.902158271134116], [50.067009087043225, 28.90708687067083], [50.059830183077935, 28.90703695190347], [50.0531026066354, 28.913759333938152], [50.04541459504071, 28.913253758802178], [50.04543525254642, 28.910997405219067], [50.05166267413397, 28.902917985368948], [50.05631831387357, 28.898437666470315], [50.06508335510609, 28.893083150735244], [50.068716629655185, 28.88814397999459], [50.06570110115866, 28.88135355691364], [50.06468388152246, 28.880443894244372], [50.06057457703576, 28.881317918793588], [50.06162827328365, 28.87816613700402], [50.058064244696915, 28.87543345643927], [50.05910982016173, 28.87318424223304], [50.05810494645445, 28.870920706604995], [50.05869887830298, 28.861898777188646], [50.05718156979761, 28.85963165442874], [50.049518033230015, 28.856870025876614], [50.045388936283466, 28.859999981091793], [50.037159117485025, 28.86310058076378], [50.03562977157832, 28.862187044961956], [50.035150554416035, 28.858573195193813], [50.036713123471, 28.855876549893278], [50.04807086327886, 28.846931126555354], [50.05221571613988, 28.841995964332412], [50.05476168884591, 28.843819050755958], [50.05683191073035, 28.84157701657774], [50.06505139940786, 28.839377709952615], [50.069130892560345, 28.84166245532875], [50.07115667611057, 28.84438425827074], [50.07422352016993, 28.845307956344573], [50.075228516667416, 28.847571382667102], [50.06700051877316, 28.850673852417586], [50.06029336458902, 28.85559163667747], [50.062331321078695, 28.85695973802857], [50.064337003984036, 28.86193802288176], [50.06479300530569, 28.8682594485426], [50.06581011036037, 28.869169109313784], [50.069402284792936, 28.86874265084727], [50.07092801764737, 28.870107088499907], [50.06780812108167, 28.875049894969298], [50.06877702007812, 28.88137484620696], [50.077941017636846, 28.888658720923083], [50.0794751093264, 28.88912051377117], [50.08102510955085, 28.887777181866284], [50.07899427408962, 28.885506796485434], [50.08365589101229, 28.88012292179429], [50.08774525971332, 28.8815045792923], [50.08925960856875, 28.884222651144565], [50.0933374555603, 28.88695797879599], [50.09590478757422, 28.88652392329469], [50.09999068594089, 28.88835649622695], [50.10205698544524, 28.886565059763186], [50.104620405010905, 28.88658211708159], [50.109770343696674, 28.88390840121915], [50.11339354176651, 28.879870528040623], [50.115444152078894, 28.879884002443625], [50.11747569004159, 28.882153855337283], [50.12055167669414, 28.882173963530093], [50.12258716425215, 28.883992459673127], [50.12516188076975, 28.8826552769864], [50.12621743271757, 28.879051665111366], [50.12878068455847, 28.879068258932566], [50.12669233373568, 28.88356781812885], [50.12050605030364, 28.887589348110893], [50.12152003780152, 28.8889498825577], [50.131800294929064, 28.885857360773933], [50.13283691095921, 28.884510112564634], [50.13181906197514, 28.883600943677962], [50.12976460754463, 28.884039000092034], [50.129775893585226, 28.8826851502937], [50.139550084840025, 28.87868613603574], [50.138535954641334, 28.877325732340157], [50.13391468148135, 28.878198732206794], [50.137012943639924, 28.87551075535886], [50.14573512153662, 28.874663699857397], [50.15085042933682, 28.876049950851012], [50.15594034042531, 28.880595016815736], [50.154863868282675, 28.886906598422282], [50.15020921910243, 28.89184171836179], [50.146037315949506, 28.900390189128107], [50.13106586616644, 28.912479716858662], [50.120239646102604, 28.91917900337402], [50.117656313764236, 28.92141862258772], [50.11659234711864, 28.92592468704767], [50.112485472607325, 28.92634898120062], [50.10938504700366, 28.929036327593582], [50.10776906816112, 28.938051684456084], [50.10103855896473, 28.94522773160587], [50.10205282789376, 28.946588407826763], [50.10411251032146, 28.945699531566877], [50.104085327979845, 28.948858462530147], [50.10201779674268, 28.95064988738542], [50.1024802113388, 28.956519887796237], [50.09991897549393, 28.95605147738458], [50.097839491637615, 28.959196654574306], [50.095270366936404, 28.959630702917742], [50.08234085252162, 28.971276909763773], [50.080288461889616, 28.971262891496494], [50.07305281920757, 28.977080092912548], [50.06739630650665, 28.978394878052757]], [[50.08363330107041, 28.941048637653516], [50.08620200709706, 28.940614801212096], [50.08776456570801, 28.93791759403423], [50.08982419023378, 28.937028934229424], [50.09391978270708, 28.93795916919853], [50.095474264813454, 28.93616441716384], [50.09855182647035, 28.93618506251864], [50.10267468429286, 28.933956097771073], [50.10578317520053, 28.930366360520807], [50.104772886044586, 28.928554434386612], [50.09910768382045, 28.93122445902339], [50.09496525913899, 28.93570969395488], [50.091891648774535, 28.93523769179098], [50.09294892691855, 28.931634405364065], [50.10483878698121, 28.92088271769389], [50.123867502585085, 28.914689606735383], [50.12490451623153, 28.913342433588102], [50.12183900967026, 28.91196856405508], [50.12236701453796, 28.910166784771345], [50.12855459164311, 28.906145209778995], [50.13218538170559, 28.901204280896778], [50.130654624524354, 28.900291797975804], [50.11519927539126, 28.90876597246762], [50.10851752056029, 28.910527130206432], [50.09665270922068, 28.91857153289288], [50.08063129189988, 28.932453449361027], [50.08060739543793, 28.93516109224637], [50.083156106240125, 28.936983680211615], [50.0826153536323, 28.94013910170656], [50.08363330107041, 28.941048637653516]], [[50.13681142602536, 28.89988008218169], [50.141448498092856, 28.897201870800217], [50.14044532248741, 28.894487629532776], [50.13631735276472, 28.897620380621323], [50.13681142602536, 28.89988008218169]], [[50.080436868939465, 28.89634793970376], [50.085083087273965, 28.892769141630144], [50.08561557043039, 28.890516235888345], [50.084598085859575, 28.889606718847162], [50.081517938962044, 28.890037062071993], [50.07893453603314, 28.892275945711923], [50.0783979133588, 28.89498009716674], [50.080436868939465, 28.89634793970376]]]}, "properties": {"date": "2026-05-13", "sensing_time": "2026-05-13T14:41:36.971369Z", "sensor": "Sentinel-1", "platform": "S1D", "kind": "core", "source": "S1 VV threshold (~4.4 dB below scene background)"}}, {"type": "Feature", "geometry": {"type": "Polygon", "coordinates": [[[50.194159519285876, 28.844272614143705], [50.194169953125574, 28.842918734010386], [50.19778502434985, 28.83932976662637], [50.211153382418935, 28.833541502306222], [50.20963311691205, 28.831276025549453], [50.206049556432596, 28.83080366944626], [50.207098345654735, 28.827650626014858], [50.21579577471369, 28.829506721032033], [50.221948162555194, 28.829091022836682], [50.22347536704613, 28.83045377120037], [50.22346196789415, 28.832258960788845], [50.204966399687834, 28.8384696527016], [50.194159519285876, 28.844272614143705]]]}, "properties": {"date": "2026-05-13", "sensing_time": "2026-05-13T14:41:36.971369Z", "sensor": "Sentinel-1", "platform": "S1D", "kind": "core", "source": "S1 VV threshold (~4.4 dB below scene background)"}}, {"type": "Feature", "geometry": {"type": "Polygon", "coordinates": [[[50.20043703938605, 28.827611316995963], [50.19686404333154, 28.825784835182315], [50.19535113958067, 28.822616613355947], [50.19023080976398, 28.822134669264617], [50.19130089865247, 28.816273983709454], [50.20153760778276, 28.817688882924323], [50.20099768883877, 28.821296216658634], [50.20711202454161, 28.82584544228223], [50.20043703938605, 28.827611316995963]]]}, "properties": {"date": "2026-05-13", "sensing_time": "2026-05-13T14:41:36.971369Z", "sensor": "Sentinel-1", "platform": "S1D", "kind": "core", "source": "S1 VV threshold (~4.4 dB below scene background)"}}, {"type": "Feature", "geometry": {"type": "Polygon", "coordinates": [[[50.338575741054285, 28.86220832479839], [50.334515236818405, 28.855869853417257], [50.33195531467921, 28.855405874877878], [50.329922439250915, 28.852687863408285], [50.32379233479085, 28.849498019575517], [50.323306095824755, 28.84543369186641], [50.318207491048035, 28.84134612659115], [50.317200193300074, 28.83863310451151], [50.3131181767918, 28.835904454514356], [50.30855077215593, 28.82911130377667], [50.30496378036084, 28.829092874176077], [50.302425715401796, 28.82546920618829], [50.29681044679545, 28.822280812368646], [50.28348516501133, 28.822662039079653], [50.28145728107804, 28.819492012542877], [50.27787063998324, 28.819472868527598], [50.2758336215029, 28.817656671595984], [50.27378101934587, 28.818096962584974], [50.2702101637963, 28.815821099327824], [50.268692004545905, 28.813104959890232], [50.26613028125446, 28.813091055811526], [50.26256612175754, 28.809912388763134], [50.26004593564422, 28.804031432723402], [50.26364472487753, 28.802245826959535], [50.26722760735172, 28.802716642304983], [50.272809572327525, 28.810419282342654], [50.277901772362625, 28.814959828811908], [50.28046044620311, 28.81542481465648], [50.281982041794016, 28.81768952247833], [50.285571705169545, 28.81725725144596], [50.28914295226749, 28.81953271451062], [50.29426369890746, 28.82001091144533], [50.298368803765, 28.81912967336724], [50.30040323238088, 28.82139684296479], [50.30501173913947, 28.821871977071375], [50.31112479648054, 28.827319183518245], [50.31111588262621, 28.828673102977856], [50.31417860541934, 28.830493991910032], [50.31415789496119, 28.83365313742979], [50.31568048467328, 28.835917476204123], [50.3177215006762, 28.837281778128077], [50.32079631377957, 28.837297294077647], [50.329951367301014, 28.848174795913668], [50.33352752374019, 28.849997800630355], [50.335560443222484, 28.852715759508108], [50.33914541473626, 28.8531846962917], [50.344248254427974, 28.856820178019884], [50.34371017878866, 28.86087945147409], [50.338575741054285, 28.86220832479839]]]}, "properties": {"date": "2026-05-13", "sensing_time": "2026-05-13T14:41:36.971369Z", "sensor": "Sentinel-1", "platform": "S1D", "kind": "core", "source": "S1 VV threshold (~4.4 dB below scene background)"}}, {"type": "Feature", "geometry": {"type": "Polygon", "coordinates": [[[50.183324999870095, 28.787793033788056], [50.1833460981228, 28.78508525785437], [50.179771312077044, 28.78370964303369], [50.17979602935322, 28.780550571903255], [50.18185529493329, 28.77920910827019], [50.18695248521211, 28.78239911089982], [50.191049966304654, 28.78242371447898], [50.191544748908036, 28.784683266705244], [50.19358311954563, 28.786049406886196], [50.1935761749889, 28.786952001150865], [50.183324999870095, 28.787793033788056]]]}, "properties": {"date": "2026-05-13", "sensing_time": "2026-05-13T14:41:36.971369Z", "sensor": "Sentinel-1", "platform": "S1D", "kind": "core", "source": "S1 VV threshold (~4.4 dB below scene background)"}}, {"type": "Feature", "geometry": {"type": "Polygon", "coordinates": [[[50.17540383606937, 28.817983051186083], [50.17438624052901, 28.817074200457654], [50.17543582914213, 28.813921413119314], [50.17392374240694, 28.81075296204353], [50.17034464372031, 28.80982838058707], [50.16882560463214, 28.80756246083357], [50.16269237776266, 28.805719298251162], [50.155520246384526, 28.805674622095772], [50.15191956826412, 28.80745730529912], [50.14783951014923, 28.805175041405853], [50.13654680239392, 28.807811161611323], [50.13040667442469, 28.80686912104674], [50.12888104558503, 28.805505346779], [50.129449599674956, 28.798739321703255], [50.12792785569231, 28.796924248987576], [50.12534777768488, 28.799164124187975], [50.1186656412806, 28.801828543409624], [50.116119521072456, 28.800006649570662], [50.11202525769167, 28.799528471309554], [50.10635191716009, 28.804004151867304], [50.107877224121125, 28.805368174205572], [50.10683725582147, 28.807166541835866], [50.10171817943465, 28.806681263144508], [50.09707253273352, 28.81071206156999], [50.09297795562521, 28.810233298980346], [50.09248129252259, 28.808424720841348], [50.09455390247448, 28.805730778038004], [50.093537141890096, 28.804821333826936], [50.08686961608324, 28.805679017712396], [50.086881420162634, 28.80432516801546], [50.09252821916992, 28.803009314139842], [50.093564481422675, 28.801662344508912], [50.08794134492077, 28.80027054236788], [50.08592775025409, 28.796195132322246], [50.08028124619625, 28.797510717823556], [50.079784857663775, 28.79570209590458], [50.083378403231364, 28.794823918763164], [50.09008836539569, 28.789002261172502], [50.09165626811805, 28.78540232595789], [50.09577712224828, 28.782722108481778], [50.09786853741511, 28.777771659972395], [50.10401820320798, 28.77736127910524], [50.095742083831844, 28.786783679786968], [50.09470210347937, 28.78858195830074], [50.095699249273004, 28.79174781912106], [50.102381287373696, 28.789084531372232], [50.106001378189504, 28.785046734787603], [50.107537939370864, 28.78505689741571], [50.112105573123394, 28.790051443337696], [50.13055275839778, 28.78926884768952], [50.137189214060086, 28.79201929702368], [50.14180294118233, 28.79159738368807], [50.14844718852136, 28.793444705535425], [50.15408540846097, 28.793028829687195], [50.16072274860992, 28.79577813874874], [50.16533297322778, 28.795806716259666], [50.165830847880855, 28.797615055058277], [50.16274649033879, 28.798949909659235], [50.16376020787777, 28.800310137722498], [50.168886486265286, 28.799890476666448], [50.17245810297686, 28.80171767847236], [50.176044046649515, 28.80173961151188], [50.180615714939584, 28.806731910633335], [50.18624754556949, 28.80721729394941], [50.18520888793853, 28.809016292447613], [50.17906111708922, 28.808979043359315], [50.17802586192626, 28.810326689472877], [50.18056980452857, 28.81259873427145], [50.18825478844576, 28.812645171308795], [50.188753133620025, 28.814453430697956], [50.18258037098598, 28.817575394141212], [50.17540383606937, 28.817983051186083]], [[50.173927302836944, 28.81030166873231], [50.176503098412276, 28.808512146562677], [50.173454166936615, 28.805334304589362], [50.171917281707316, 28.805324885825886], [50.17036609680114, 28.80712062234362], [50.173927302836944, 28.81030166873231]], [[50.138098567316646, 28.806015826288167], [50.14221170615717, 28.804236771385547], [50.14479524492396, 28.80154528001765], [50.14172900461788, 28.800623194432013], [50.13708885332109, 28.804204123075454], [50.138098567316646, 28.806015826288167]], [[50.10127946245165, 28.798103434278065], [50.10590897405465, 28.795877612808567], [50.10592437827766, 28.794072467697713], [50.10185361036937, 28.790886270222394], [50.099804751548625, 28.790872627429373], [50.09722035192937, 28.79356324254854], [50.094667014917775, 28.792643524871718], [50.093118630304545, 28.793987067741927], [50.09565640390172, 28.796711954745298], [50.09975822447449, 28.796288054764272], [50.10127946245165, 28.798103434278065]]]}, "properties": {"date": "2026-05-13", "sensing_time": "2026-05-13T14:41:36.971369Z", "sensor": "Sentinel-1", "platform": "S1D", "kind": "core", "source": "S1 VV threshold (~4.4 dB below scene background)"}}, {"type": "Feature", "geometry": {"type": "Polygon", "coordinates": [[[50.248781839240614, 28.803066583209745], [50.23905811364981, 28.801658167576882], [50.23499279099313, 28.797121998653317], [50.23141357543885, 28.796199033119546], [50.22835997249378, 28.793473700613077], [50.22786768124194, 28.79076296946953], [50.22481098939597, 28.788488859794008], [50.22431213069978, 28.786680716939433], [50.22123886976798, 28.786663030292303], [50.21920347819993, 28.784846000393962], [50.21511263286271, 28.78391964976548], [50.21360312998682, 28.780300314289814], [50.20696871891186, 28.777102290817606], [50.20342130191981, 28.772116906413263], [50.199320765541344, 28.772543984743972], [50.193725412741564, 28.767546197526194], [50.1860542302241, 28.766146244939097], [50.18351477960462, 28.76342301077443], [50.18302377326704, 28.76071212992188], [50.18098955074008, 28.758894540435605], [50.17792067209483, 28.75842458718005], [50.17792774312104, 28.75752199262105], [50.182027761080406, 28.757095552623742], [50.188663620109466, 28.759843471735337], [50.19171521118669, 28.762569675698344], [50.19478428047733, 28.76303931901953], [50.19630672551086, 28.76485366100482], [50.20449691849364, 28.765353449241942], [50.210109675130255, 28.768094299167807], [50.21161549868474, 28.772164974500804], [50.22029501084421, 28.775825909508907], [50.22128245504037, 28.780796125795895], [50.23351212687245, 28.789441165522955], [50.23911056035717, 28.794437347058512], [50.240624414191615, 28.797605108976704], [50.24370126796656, 28.797171058661654], [50.24730332913801, 28.794934585254033], [50.25548656651105, 28.796785237067496], [50.25444919305339, 28.798584795558376], [50.24880449513901, 28.799907468750675], [50.24981935524515, 28.801267072065865], [50.248781839240614, 28.803066583209745]]]}, "properties": {"date": "2026-05-13", "sensing_time": "2026-05-13T14:41:36.971369Z", "sensor": "Sentinel-1", "platform": "S1D", "kind": "core", "source": "S1 VV threshold (~4.4 dB below scene background)"}}, {"type": "Feature", "geometry": {"type": "Polygon", "coordinates": [[[50.1687177866943, 28.756563016082026], [50.167206686572136, 28.75339448422216], [50.162594723083394, 28.753817304759608], [50.159028510281544, 28.75153857097324], [50.1590393573397, 28.75018468421375], [50.165194417718155, 28.748868885144624], [50.17080166946925, 28.752062632598506], [50.1697633209969, 28.75386153257782], [50.17077671056113, 28.755221709888648], [50.17538516432504, 28.755249907974278], [50.17435041124439, 28.756597546343244], [50.1687177866943, 28.756563016082026]]]}, "properties": {"date": "2026-05-13", "sensing_time": "2026-05-13T14:41:36.971369Z", "sensor": "Sentinel-1", "platform": "S1D", "kind": "core", "source": "S1 VV threshold (~4.4 dB below scene background)"}}]}